GAOFEN-12 04            
1 57654U 23123A   26170.63848200  .00000721  00000+0  10166-3 0  9991
2 57654  97.9121  88.6211 0001777  82.3586 277.7828 14.80232541152995
PARS 1                  
1 59065U 24039Q   26170.64501411  .00009637  00000+0  20057-3 0  9992
2 59065  97.4827 151.6421 0011540 104.3384 255.9147 15.45767414129029
RESURS-P 4              
1 59371U 24061A   26170.61434502  .00002442  00000+0  81143-4 0  9991
2 59371  97.2753 118.4708 0002352 124.1796 235.9669 15.32142618124135
LEGION 1                
1 59625U 24081A   26170.53615176  .00002638  00000+0  13809-3 0  9994
2 59625  97.5016 248.3682 0009291   9.7979 350.3434 15.16680029117898
LEGION 2                
1 59626U 24081B   26170.56616418  .00002990  00000+0  15607-3 0  9997
2 59626  97.5016 248.4952 0010557 335.0375  25.0346 15.16658780117901
ALOS-4 (DAICHI-4)       
1 60182U 24123A   26170.59330418  .00001069  00000+0  15007-3 0  9999
2 60182  97.9248 267.7335 0001623  97.0889 263.0507 14.79472225106232
LEGION 3                
1 60452U 24146A   26170.56896239  .00003401  00000+0  18723-3 0  9999
2 60452  45.0027  17.7811 0007929 183.9483 176.1334 15.16052785102384
LEGION 4                
1 60453U 24146B   26170.30850116  .00003734  00000+0  20405-3 0  9995
2 60453  45.0014 111.0883 0013586 319.7035  40.2836 15.16046207101194
SENTINEL-2C             
1 60989U 24157A   26170.48023720  .00000077  00000+0  46066-4 0  9992
2 60989  98.5692 245.2299 0000997  82.8566 277.2731 14.30818366 93311
IONOSFERA-M 1           
1 61735U 24199A   26170.58487312  .00000032  00000+0  34045-4 0  9995
2 61735  98.7170  43.7318 0002012 107.2173 252.9225 14.22754732128047
IONOSFERA-M 2           
1 61736U 24199B   26170.61916236  .00000035  00000+0  35437-4 0  9991
2 61736  98.7169  43.6763 0000945  37.8711 322.2533 14.22758029131172
PRSC-EO1                
1 62725U 25012A   26170.63125894  .00005274  00000+0  26536-3 0  9998
2 62725  97.4221 243.0436 0004941 241.4639 118.6097 15.17633604 78562
BIOMASS                 
1 63772U 25090A   26169.46532683  .00000158  00000+0  36300-4 0  9991
2 63772  98.0739 356.7637 0001346  96.2561 263.8797 14.67536694 60877
